satNo,name,line1,line2,inclination,apogee,raan,argument_of_perigee,eccentricity,mean_motion,hdbscan_labels
64537,OTTER PUP 2,1 64537U 25135K   26026.78132889  .00012333  00000-0  57646-3 0  9996,2 64537  97.4575 143.2346 0001862 354.2056   5.9157 15.19926292 33367,97.4575,514.4820065182298,143.2346,354.2056,0.0001862,15.19926292,170
64538,IOD2_STARTICAL,1 64538U 25135L   26027.27984922  .00008010  00000-0  38601-3 0  9992,2 64538  97.4556 143.4693 0003837 321.6758  38.4204 15.18986490 33421,97.4556,518.6819511199388,143.4693,321.6758,0.0003837,15.1898649,-1
64539,ELARA 1,1 64539U 25135M   26027.29363274  .00014413  00000-0  65303-3 0  9999,2 64539  97.4586 143.8366 0002588 320.6420  39.4627 15.20962531 33448,97.4586,511.8538094493272,143.8366,320.642,0.0002588,15.20962531,223
64540,ARCSTONE,1 64540U 25135N   26027.29216595  .00033830  00000-0  12982-2 0  9992,2 64540  97.4484 144.3669 0002768 327.8577  32.2493 15.26397219 33499,97.4484,495.6302119269315,144.3669,327.8577,0.0002768,15.26397219,-1
64541,PULSAR-0,1 64541U 25135P   26027.32079293  .00006237  00000-0  29956-3 0  9990,2 64541  97.4557 143.5522 0002351 341.0309  19.0837 15.19195978 33438,97.4557,517.0252527549984,143.5522,341.0309,0.0002351,15.19195978,242
64542,USPWSA-DRAGOON,1 64542U 25135Q   26027.31842057  .00018985  00000-0  81801-3 0  9996,2 64542  97.4564 144.0674 0002114 326.1697  33.9404 15.22622978 33469,97.4564,506.5230588306533,144.0674,326.1697,0.0002114,15.22622978,212
64544,SKYBEE-A02,1 64544U 25135S   26027.29200251  .00005062  00000-0  24369-3 0  9997,2 64544  97.4586 143.6725 0000297 330.4596  29.6622 15.19210719 33436,97.4586,515.5662373504546,143.6725,330.4596,2.97e-05,15.19210719,242
64545,ION SCV-020,1 64545U 25135T   26027.30817022  .00006577  00000-0  30923-3 0  9995,2 64545  97.4566 143.7558 0001820   1.9000 358.2242 15.19913255 33448,97.4566,514.492465968214,143.7558,1.9,0.000182,15.19913255,241
64546,FORGESTAR-1,1 64546U 25135U   26027.31350970  .00012949  00000-0  57312-3 0  9992,2 64546  97.4546 143.9966 0000704  38.7804 321.3482 15.21793074 33469,97.4546,508.05337387283146,143.9966,38.7804,7.04e-05,15.21793074,212
64548,GHGSAT-C13,1 64548U 25135W   26027.28489708  .00005849  00000-0  27576-3 0  9992,2 64548  97.4629 143.9554 0000626 151.6012 208.5258 15.19865879 33440,97.4629,513.8135558543,143.9554,151.6012,6.26e-05,15.19865879,212
64549,UND ROADS 2,1 64549U 25135X   26027.30818694  .00011764  00000-0  52260-3 0  9997,2 64549  97.4638 144.2650 0000784 184.2119 175.9111 15.21689397 33477,97.4638,508.420860944923,144.265,184.2119,7.84e-05,15.21689397,-1
64550,BRO-18,1 64550U 25135Y   26027.29478414  .00007843  00000-0  36209-3 0  9997,2 64550  97.4489 143.7127 0001937  58.3095 301.8329 15.20482473 33455,97.4489,512.8544181825425,143.7127,58.3095,0.0001937,15.20482473,241
64551,SATMAR,1 64551U 25135Z   26027.26133889  .00015060  00000-0  65449-3 0  9997,2 64551  97.4477 143.8901 0001917  62.0791 298.0639 15.22379939 33463,97.4477,507.11953709879236,143.8901,62.0791,0.0001917,15.22379939,223
64552,HYPERFIELD-1B,1 64552U 25135AA  26027.27334138  .00008713  00000-0  39729-3 0  9998,2 64552  97.4523 143.8290 0002208  83.4352 276.7135 15.20875254 33453,97.4523,511.8556359453034,143.829,83.4352,0.0002208,15.20875254,223
64553,CONNECTA IOT-12,1 64553U 25135AB  26027.28276672  .00007459  00000-0  34212-3 0  9996,2 64553  97.4598 144.0483 0001850 127.0554 233.0851 15.20727503 33458,97.4598,512.0550777325267,144.0483,127.0554,0.000185,15.20727503,212
64555,CONNECTA IOT-10,1 64555U 25135AD  26027.31124576  .00006427  00000-0  30079-3 0  9998,2 64555  97.4543 143.8327 0002421  89.7340 270.4173 15.20082045 33453,97.4543,514.3964583755769,143.8327,89.734,0.0002421,15.20082045,223
64557,CONNECTA IOT-11,1 64557U 25135AF  26027.28781835  .00006938  00000-0  32052-3 0  9993,2 64557  97.4572 143.9596 0002578 114.2434 245.9071 15.20501597 33459,97.4572,513.2378631852008,143.9596,114.2434,0.0002578,15.20501597,212
64558,QUICK3,1 64558U 25135AG  26027.27161755  .00024051  00000-0  10199-2 0  9999,2 64558  97.4598 144.0740 0004820 300.4932  59.5828 15.23104897 33370,97.4598,506.93252942398004,144.074,300.4932,0.000482,15.23104897,212
64559,PADRE,1 64559U 25135AH  26027.26175688  .00004411  00000-0  44187-3 0  9992,2 64559  97.7579 142.9490 0002358  45.3158 314.8253 14.91884003 32838,97.7579,600.8419164487198,142.949,45.3158,0.0002358,14.91884003,-1
64561,LEMUR 2 KRISH,1 64561U 25135AK  26027.29232242  .00011178  00000-0  10418-2 0  9995,2 64561  97.7601 143.4519 0000778 104.3291 255.8015 14.94413005 32869,97.7601,591.8739943353655,143.4519,104.3291,7.78e-05,14.94413005,204
64562,HUBBLE 6,1 64562U 25135AL  26027.32188074  .00003987  00000-0  39265-3 0  9994,2 64562  97.7611 143.2672 0000980  91.3444 268.7888 14.92625695 32857,97.7611,597.5719915862754,143.2672,91.3444,9.8e-05,14.92625695,232
64563,AE3VA,1 64563U 25135AM  26027.31475188  .00012885  00000-0  11815-2 0  9996,2 64563  97.7537 143.4339 0002679  39.2191 320.9223 14.95017706 32871,97.7537,591.3194996954799,143.4339,39.2191,0.0002679,14.95017706,204
64564,TIME FLIES,1 64564U 25135AN  26027.31124863  .00006304  00000-0  59990-3 0  9994,2 64564  97.7564 143.3328 0002392  50.1037 310.0393 14.93771371 32862,97.7564,594.991780696163,143.3328,50.1037,0.0002392,14.93771371,231
64565,LEMUR 2 HUBBLE-4,1 64565U 25135AP  26027.32644512  .00003784  00000-0  37562-3 0  9994,2 64565  97.7561 143.1214 0003485  56.2823 303.8728 14.92331013 32851,97.7561,600.2350098821017,143.1214,56.2823,0.0003485,14.92331013,-1
64566,ARVAKER-3,1 64566U 25135AQ  26027.30655413  .00005158  00000-0  50382-3 0  9997,2 64566  97.7579 143.2153 0002632  70.0011 290.1492 14.92818209 32853,97.7579,598.1238631562358,143.2153,70.0011,0.0002632,14.92818209,-1
64567,ARVAKER-2,1 64567U 25135AR  26027.31076553  .00005194  00000-0  50786-3 0  9999,2 64567  97.7591 143.2409 0002335  78.1535 281.9946 14.92768822 32859,97.7591,598.0706409608769,143.2409,78.1535,0.0002335,14.92768822,232
64568,IRIDE-MS2-HEO-3,1 64568U 25135AS  26027.27202106  .00004957  00000-0  48033-3 0  9998,2 64568  97.7587 143.2563 0003773  73.0215 287.1418 14.93152109 32850,97.7587,597.8797125991462,143.2563,73.0215,0.0003773,14.93152109,232
64569,IRIDE-MS2-HEO-2,1 64569U 25135AT  26027.28337492  .00004153  00000-0  40536-3 0  9995,2 64569  97.7608 143.2964 0003011  99.2679 260.8881 14.92953576 32857,97.7608,597.9666380161494,143.2964,99.2679,0.0003011,14.92953576,232
64570,ICEYE-X54,1 64570U 25135AU  26027.31601192  .00006990  00000-0  66920-3 0  9998,2 64570  97.7574 143.3525 0003021  75.1279 285.0275 14.93489319 32862,97.7574,596.3069030516641,143.3525,75.1279,0.0003021,14.93489319,231
64571,IRIDE-MS2-HEO-5,1 64571U 25135AV  26027.26053005  .00004967  00000-0  48044-3 0  9996,2 64571  97.7578 143.2587 0004034  74.6272 285.5393 14.93223099 32852,97.7578,597.840650455108,143.2587,74.6272,0.0004034,14.93223099,232
64572,ICEYE-X52,1 64572U 25135AW  26027.28374023  .00004345  00000-0  42474-3 0  9996,2 64572  97.7604 143.2866 0003196  85.0082 275.1502 14.92863522 32853,97.7604,598.3757867535595,143.2866,85.0082,0.0003196,14.92863522,232
64573,MUSAT3,1 64573U 25135AX  26027.23020555  .00002907  00000-0  28690-3 0  9996,2 64573  97.7575 143.1449 0003661  76.9500 283.2128 14.92738107 32841,97.7575,599.090134721118,143.1449,76.95,0.0003661,14.92738107,-1
64574,ICEYE-X56,1 64574U 25135AY  26027.28743565  .00006995  00000-0  65314-3 0  9990,2 64574  97.7602 143.5957 0003065  87.2467 272.9104 14.94484038 32871,97.7602,593.245596728785,143.5957,87.2467,0.0003065,14.94484038,204
64575,ION SCV-018,1 64575U 25135AZ  26027.28415618  .00002045  00000-0  19546-3 0  9994,2 64575  97.7628 143.7982 0013720  46.3869 313.8487 14.94302961 32885,97.7628,601.2269246657575,143.7982,46.3869,0.001372,14.94302961,-1
64576,IRIDE-MS2-HEO-6,1 64576U 25135BA  26027.30597907  .00004233  00000-0  40864-3 0  9998,2 64576  97.7570 143.3352 0004584  77.8700 282.3033 14.93375145 32868,97.757,597.7507326210439,143.3352,77.87,0.0004584,14.93375145,231
64577,LYRA-3,1 64577U 25135BB  26027.25750828  .00003839  00000-0  59001-3 0  9990,2 64577  97.7639 138.0913 0022158  78.4011 281.9684 14.73931882 32500,97.7639,671.2506377648021,138.0913,78.4011,0.0022158,14.73931882,-1
64578,ICEYE-X57,1 64578U 25135BC  26027.30096383  .00008607  00000-0  74168-3 0  9995,2 64578  97.7559 143.7983 0003711  81.8251 278.3392 14.97560760 32897,97.7559,584.1528201220445,143.7983,81.8251,0.0003711,14.9756076,-1
64579,GRUS-3ALPHA,1 64579U 25135BD  26027.27155175  .00003519  00000-0  34678-3 0  9996,2 64579  97.7619 143.3352 0004417  98.7793 261.3927 14.92661360 32858,97.7619,599.8558138116766,143.3352,98.7793,0.0004417,14.9266136,231
64580,YAM-10,1 64580U 25135BE  26026.79587147  .00004879  00000-0  47491-3 0  9999,2 64580  97.7585 142.8060 0004679 103.8584 256.3156 14.92971551 32784,97.7585,599.0727659137715,142.806,103.8584,0.0004679,14.92971551,-1
64581,ICEYE-X55,1 64581U 25135BF  26027.31534745  .00007669  00000-0  72328-3 0  9992,2 64581  97.7592 143.5584 0004078 100.0482 260.1198 14.94050271 32879,97.7592,595.2988809650559,143.5584,100.0482,0.0004078,14.94050271,204
64582,IRIDE-MS2-HEO-4,1 64582U 25135BG  26027.26552350  .00005245  00000-0  50071-3 0  9998,2 64582  97.7577 143.3985 0005863  92.6404 267.5488 14.93708079 32866,97.7577,597.6059423210277,143.3985,92.6404,0.0005863,14.93708079,-1
64583,CAPELLA-17 (ACADIA),1 64583U 25135BH  26027.29079424  .00014416  00000-0  14853-2 0  9995,2 64583  97.7557 143.2016 0005782 107.8270 252.3580 14.90337867 32853,97.7557,608.0512407743223,143.2016,107.827,0.0005782,14.90337867,-1
64584,ICEYE-X53,1 64584U 25135BJ  26027.28640892 -.00009903  00000-0 -77450-3 0  9998,2 64584  97.7487 144.5967 0001609 102.8193 257.3211 15.00907966 32949,97.7487,572.3491619082866,144.5967,102.8193,0.0001609,15.00907966,-1
